{
    "satellites": [
        {
            "name": "starlink372",
            "title": "Starlink-372 (G10-44)",
            "tle": [
                "1 70314C 26068V   26097.44701389 -.01750700  00000+0 -52985-2 0   978",
                "2 70314  53.1609   5.1745 0000560  88.8179  11.0935 15.92276683    14"
            ],
            "stdMag": 5,
            "noradId": "70314",
            "intDes": null,
            "tleUrl": "http://celestrak.org/NORAD/elements/supplemental/sup-gp.php?FILE=starlink&FORMAT=tle",
            "launchDate": "2026-03-30T21:15:00.000Z",
            "active": true,
            "batch": [
                {
                    "noradId": "70314",
                    "tle": [
                        "1 70314C 26068V   26097.44701389 -.01750700  00000+0 -52985-2 0   978",
                        "2 70314  53.1609   5.1745 0000560  88.8179  11.0935 15.92276683    14"
                    ]
                },
                {
                    "noradId": "70307",
                    "tle": [
                        "1 70307C 26068N   26097.41923611 -.01792700  00000+0 -56968-2 0   972",
                        "2 70307  53.1608   5.3556 0000508  73.6300 207.8555 15.91348199    11"
                    ]
                },
                {
                    "noradId": "70301",
                    "tle": [
                        "1 70301C 26068G   26097.36159722 -.01814500  00000+0 -59973-2 0   976",
                        "2 70301  53.1610   5.6816 0000526  79.5737 216.0497 15.90585753    14"
                    ]
                },
                {
                    "noradId": "70299",
                    "tle": [
                        "1 70299C 26068E   26097.39284722 -.01839800  00000+0 -62213-2 0   975",
                        "2 70299  53.1609   5.5333 0000723  81.9959  27.3809 15.90146472    14"
                    ]
                }
            ]
        },
        {
            "name": "starlink371",
            "title": "Starlink-371 (G17-17)",
            "tle": [
                "1 68400C 26063W   26097.38590278 -.00671910  00000+0 -35032-2 0   970",
                "2 68400  97.2824 238.5391 0001213  81.0941  10.9527 15.81234664    18"
            ],
            "stdMag": 5,
            "noradId": "68400",
            "intDes": null,
            "tleUrl": "http://celestrak.org/NORAD/elements/supplemental/sup-gp.php?FILE=starlink&FORMAT=tle",
            "launchDate": "2026-03-26T23:03:19.000Z",
            "active": true,
            "batch": [
                {
                    "noradId": "68400",
                    "tle": [
                        "1 68400C 26063W   26097.38590278 -.00671910  00000+0 -35032-2 0   970",
                        "2 68400  97.2824 238.5391 0001213  81.0941  10.9527 15.81234664    18"
                    ]
                },
                {
                    "noradId": "68393",
                    "tle": [
                        "1 68393C 26063P   26097.33798611 -.00041939  00000+0 -21929-3 0   970",
                        "2 68393  97.2841 238.4771 0001624  47.7461 102.0702 15.80848558    11"
                    ]
                },
                {
                    "noradId": "68390",
                    "tle": [
                        "1 68390C 26063L   26097.45048611 -.01475300  00000+0 -23874-2 0   972",
                        "2 68390  97.2776 238.7044 0001243  46.6199 269.2689 16.04217140    18"
                    ]
                },
                {
                    "noradId": "68386",
                    "tle": [
                        "1 68386C 26063G   26097.37062500 -.00002511  00000+0 -13130-4 0   976",
                        "2 68386  97.2842 238.4988 0001407  60.8506 244.6836 15.80826453    10"
                    ]
                },
                {
                    "noradId": "68381",
                    "tle": [
                        "1 68381C 26063B   26097.39215278  .00012183  00000+0  63729-4 0   978",
                        "2 68381  97.2843 238.5130 0000980  68.9691 337.6226 15.80813774    13"
                    ]
                }
            ]
        }
    ],
    "config": {}
}